OBJECT_NAME,OBJECT_ID,EPOCH,MEAN_MOTION,ECCENTRICITY,INCLINATION,RA_OF_ASC_NODE,ARG_OF_PERICENTER,MEAN_ANOMALY,EPHEMERIS_TYPE,CLASSIFICATION_TYPE,NORAD_CAT_ID,ELEMENT_SET_NO,REV_AT_EPOCH,BSTAR,MEAN_MOTION_DOT,MEAN_MOTION_DDOT
STARLINK-5974,2023-058AD,2026-07-04T09:53:04.373952,15.05656125,.00018687,97.2838,184.6970,90.4665,269.6776,0,U,56344,999,17576,.4816967E-4,.639E-5,0
STARLINK-5979,2023-058AE,2026-07-04T09:47:07.792512,15.05654084,.00019603,97.2836,183.4829,89.8531,270.2921,0,U,56345,999,17568,.47054721E-4,.623E-5,0
STARLINK-5837,2023-058AF,2026-07-04T05:31:57.455040,15.05650716,.00016904,97.2833,183.4165,91.5779,268.5642,0,U,56346,999,17566,.439561E-5,.7E-7,0
STARLINK-5829,2023-058AG,2026-07-03T23:07:05.685600,15.05657329,.00015454,97.2833,184.2350,87.4613,272.6791,0,U,56347,999,17569,.2955236E-5,-.14E-6,0
STARLINK-5888,2023-058AH,2026-07-04T10:07:03.475200,15.05658424,.00015307,97.2841,183.4637,92.1813,267.9590,0,U,56348,999,17568,.6415144E-4,.87E-5,0
STARLINK-5887,2023-058AJ,2026-07-04T10:27:00.499680,15.05655829,.00015975,97.2827,183.5987,93.4239,266.7171,0,U,56349,999,17569,.13297994E-4,.136E-5,0
STARLINK-5886,2023-058AK,2026-07-04T10:05:02.106528,15.05655679,.00017811,97.2844,184.6866,97.8993,262.2437,0,U,56350,999,17576,.35422638E-4,.455E-5,0
STARLINK-5891,2023-058AL,2026-07-04T05:53:49.119360,15.05651507,.00020646,97.2828,184.4645,88.1139,272.0325,0,U,56351,999,17573,-.20450064E-4,-.351E-5,0
STARLINK-5885,2023-058AM,2026-07-04T11:14:52.223136,15.05651144,.00019526,97.2833,183.5537,89.5066,270.6385,0,U,56352,999,17569,.1079812E-3,.1502E-4,0
STARLINK-5874,2023-058AN,2026-07-04T11:18:50.089248,15.05657140,.0001444,97.2834,183.5522,100.8782,259.2609,0,U,56353,999,17569,.85092631E-4,.1172E-4,0
STARLINK-5877,2023-058AP,2026-07-04T11:08:49.303392,15.05655425,.00019263,97.2829,184.6272,92.2572,267.8876,0,U,56354,999,17576,.41418758E-4,.541E-5,0
STARLINK-5533,2023-058AQ,2026-07-04T14:00:01.999872,15.66304391,.00011056,97.5249,187.3140,106.9383,36.1169,0,U,56355,999,587,.44390661E-2,.485383E-2,0
STARLINK-5535,2023-058AR,2026-07-04T10:36:55.914048,15.05652640,.00018471,97.2828,184.6567,91.3314,268.8125,0,U,56356,999,17576,.458717E-5,.1E-6,0
STARLINK-5538,2023-058AS,2026-07-04T09:49:05.433024,15.05653146,.00020204,97.2833,184.7023,91.3918,268.7541,0,U,56357,999,17576,.38383604E-4,.498E-5,0
STARLINK-5482,2023-058AT,2026-07-04T10:23:01.486176,15.05657127,.00017119,97.2829,183.6029,89.4174,270.7249,0,U,56358,999,17569,.15694196E-4,.17E-5,0
STARLINK-5551,2023-058AU,2026-07-03T10:07:35.054400,15.05667627,.00012809,97.2841,182.5288,98.8252,261.3121,0,U,56359,999,17553,.30983256E-4,.391E-5,0
STARLINK-5549,2023-058AV,2026-07-04T10:20:58.872480,15.05656598,.00022715,97.2838,184.6718,100.4818,259.6666,0,U,56360,999,17576,.21494507E-4,.254E-5,0
STARLINK-5550,2023-058AW,2026-07-04T05:51:52.516512,15.05654177,.000202,97.2825,183.4004,88.6159,271.5300,0,U,56361,999,17566,-.19275577E-4,-.334E-5,0
STARLINK-5972,2023-058AX,2026-07-04T10:28:56.638560,15.05662296,.00019131,97.2829,184.6643,93.4837,266.6610,0,U,56362,999,17576,.88029715E-4,.1214E-4,0
O3B MPOWER F4,2023-059A,2026-07-04T08:45:35.861760,5.00115475,.00077161,0.0631,351.7656,115.9657,252.3527,0,U,56367,999,5946,0,-.13E-6,0
O3B MPOWER F3,2023-059B,2026-07-04T09:33:20.122848,5.00116640,.00066957,0.0638,351.1132,109.4181,259.5439,0,U,56368,999,5559,0,-.13E-6,0
VIASAT-3 F1,2023-060A,2026-07-02T15:16:13.435968,1.00272672,.00007614,0.0198,6.0968,100.5919,314.0664,0,U,56370,999,1158,0,0,0
ARCTURUS,2023-060B,2026-07-04T02:19:15.310272,1.00598346,.00005055,2.8173,79.7292,153.7933,169.4285,0,U,56371,999,1162,0,-.246E-5,0
GS-1,2023-060C,2026-07-03T21:12:15.943968,1.00269942,.00035776,2.7678,79.6359,280.3462,329.4183,0,U,56372,999,770,0,-.213E-5,0
STARLINK-6156,2023-061A,2026-07-04T04:49:30.028800,15.27585340,.00026004,43.0037,260.3308,289.8470,70.2101,0,U,56374,999,17566,-.2072081E-5,-.32E-5,0
STARLINK-6158,2023-061B,2026-07-04T11:33:39.899520,15.27578150,.0001454,43.0028,258.1360,267.9970,92.0715,0,U,56375,999,17461,.9485392E-5,-.1E-7,0
STARLINK-6188,2023-061C,2026-07-04T11:18:51.914016,15.27581335,.00017712,43.0020,258.0618,273.2104,86.8545,0,U,56376,999,17461,.64252861E-4,.1506E-4,0
STARLINK-6189,2023-061D,2026-07-04T06:32:54.570912,15.27576357,.00021647,43.0027,260.0075,276.8356,83.2250,0,U,56377,999,17457,.53525753E-4,.1211E-4,0
STARLINK-6191,2023-061E,2026-07-04T11:28:07.520448,15.27575612,.00013723,43.0020,258.1065,270.9301,89.1393,0,U,56378,999,17461,.3590903E-4,.726E-5,0
STARLINK-6157,2023-061F,2026-07-04T11:37:22.376928,15.27577081,.00014169,43.0027,258.1610,265.8754,94.1936,0,U,56379,999,17571,.38751438E-4,.804E-5,0
STARLINK-6159,2023-061H,2026-07-04T06:10:42.088512,15.27580657,.00003792,42.9995,259.8906,299.8117,60.2697,0,U,56381,999,17457,.7370884E-5,-.59E-6,0
STARLINK-6160,2023-061J,2026-07-04T12:19:55.736256,15.27581083,.00009397,43.0013,258.3740,279.6842,80.3904,0,U,56382,999,17461,.20830243E-4,.311E-5,0
STARLINK-6166,2023-061K,2026-07-04T12:14:22.896672,15.27579911,.00013508,43.0028,258.3492,273.8058,86.2639,0,U,56383,999,17461,.19071735E-4,.263E-5,0
STARLINK-6153,2023-061L,2026-07-04T12:10:40.451232,15.27641204,.00024307,43.0024,258.3269,270.1399,89.9174,0,U,56384,999,17461,-.28746707E-3,-.818E-4,0
STARLINK-6173,2023-061M,2026-07-04T13:35:35.080800,15.27574589,.00011614,43.0011,257.9099,263.4335,96.6384,0,U,56385,999,17462,.63819817E-4,.1494E-4,0
STARLINK-5836,2023-061N,2026-07-04T12:21:47.807424,15.27561953,.00036207,43.0082,258.3851,261.0695,98.9747,0,U,56386,999,17461,-.86946069E-4,-.2654E-4,0
STARLINK-6178,2023-061P,2026-07-04T11:29:58.072704,15.27581639,.0001479,43.0030,258.1187,271.2415,88.8267,0,U,56387,999,17461,.52766146E-4,.119E-4,0
STARLINK-6176,2023-061Q,2026-07-04T06:19:57.480672,15.27575363,.00016861,43.0052,259.9227,279.2415,80.8246,0,U,56388,999,17457,.22656079E-4,.361E-5,0
STARLINK-6145,2023-061R,2026-07-04T12:16:13.822176,15.27575778,.00012534,43.0028,258.3523,286.8645,73.2070,0,U,56389,999,17461,.37335141E-4,.765E-5,0
STARLINK-6298,2023-061T,2026-07-04T05:07:45.662880,15.27597933,.00012691,43.0034,259.5613,271.8963,88.1744,0,U,56391,999,17457,.14629376E-3,.3768E-4,0
STARLINK-6301,2023-061U,2026-07-04T13:00:39.334752,15.27578846,.00010679,43.0020,247.3003,272.0445,88.0284,0,U,56392,999,17474,.29675877E-4,.555E-5,0
STARLINK-6303,2023-061V,2026-07-04T13:30:01.766016,15.27579943,.0001295,43.0009,257.8781,269.1609,90.9095,0,U,56393,999,17462,.76784795E-4,.1851E-4,0
STARLINK-6305,2023-061W,2026-07-04T10:31:00.595776,15.27546810,.00019367,43.0013,247.3822,251.3183,108.7458,0,U,56394,999,17473,.38214369E-3,.10258E-3,0
STARLINK-6273,2023-061X,2026-07-04T05:35:47.103648,15.27584071,.00015677,43.0039,249.2752,287.4030,72.6650,0,U,56395,999,17540,-.2171411E-5,-.322E-5,0
STARLINK-6302,2023-061Y,2026-07-04T10:47:38.631552,15.27580521,.00013581,43.0004,247.4659,276.1038,83.9659,0,U,56396,999,16986,.58181636E-4,.1339E-4,0
STARLINK-6271,2023-061Z,2026-07-04T13:15:27.847296,15.27574162,.00009566,43.0020,247.3715,287.3191,72.7556,0,U,56397,999,17474,-.10966906E-3,-.3278E-4,0
STARLINK-6288,2023-061AA,2026-07-04T12:27:22.317120,15.27566110,.00012524,43.0010,247.1242,274.6869,85.3840,0,U,56398,999,17474,.16969549E-4,.205E-5,0
STARLINK-6277,2023-061AB,2026-07-04T10:42:05.372064,15.27582387,.00015487,43.0026,247.4408,276.1595,83.9081,0,U,56399,999,17473,.64090557E-4,.1502E-4,0
STARLINK-6267,2023-061AC,2026-07-04T12:32:54.152736,15.27578271,.00013104,43.0014,247.1539,267.9814,92.0888,0,U,56400,999,17474,.67902578E-4,.1607E-4,0
STARLINK-6287,2023-061AG,2026-07-04T05:13:33.584448,15.27584085,.00012088,43.0022,249.1527,277.2129,82.8585,0,U,56404,999,17469,.33918849E-4,.671E-5,0
STARLINK-6285,2023-061AH,2026-07-04T11:02:27.168288,15.27584796,.00012291,43.0012,247.5369,270.9023,89.1688,0,U,56405,999,17473,-.20892546E-4,-.837E-5,0
STARLINK-6283,2023-061AJ,2026-07-04T05:33:55.830816,15.27574970,.00016441,43.0035,249.2545,298.2962,61.7724,0,U,56406,999,17469,.22040494E-4,.344E-5,0
STARLINK-6282,2023-061AK,2026-07-04T12:58:48.445536,15.27576498,.00012089,43.0018,247.2814,272.0426,88.0288,0,U,56407,999,17474,.32979244E-4,.645E-5,0
STARLINK-6289,2023-061AL,2026-07-04T10:32:50.098272,15.27594451,.00015812,43.0035,247.3683,277.9314,82.1358,0,U,56408,999,17473,-.10569488E-4,-.553E-5,0
STARLINK-6241,2023-061AM,2026-07-04T11:33:53.890272,15.27578170,.000112,43.0025,247.6995,284.0685,76.0042,0,U,56409,999,17473,.30475884E-4,.577E-5,0
STARLINK-6281,2023-061AN,2026-07-04T04:06:57.824640,15.27574728,.00016619,43.0031,248.8065,272.6538,87.4123,0,U,56410,999,17469,.17057537E-4,.207E-5,0
STARLINK-6279,2023-061AP,2026-07-04T13:13:34.940640,15.27600158,.00013208,43.0021,247.3571,280.0254,80.0448,0,U,56411,999,17474,-.26445725E-4,-.99E-5,0
STARLINK-6278,2023-061AQ,2026-07-04T12:18:05.835456,15.27579243,.00014539,43.0023,247.0698,271.1410,88.9275,0,U,56412,999,17474,.59404539E-4,.1373E-4,0
STARLINK-6258,2023-061AR,2026-07-04T04:05:19.459968,15.27573107,.00012965,43.0029,249.6575,281.3757,78.6949,0,U,56413,999,17468,.10074379E-4,.15E-6,0
STARLINK-5136,2023-061AS,2026-07-04T12:49:33.133728,15.27578922,.0001236,42.9998,247.2251,272.9373,87.1337,0,U,56414,999,17474,.5738228E-4,.1317E-4,0
STARLINK-6260,2023-061AU,2026-07-04T13:57:19.617120,15.27543772,.00010558,43.0003,239.6824,279.2552,80.8181,0,U,56416,999,17483,.3099842E-3,.8268E-4,0
STARLINK-6261,2023-061AV,2026-07-04T12:29:12.100416,15.27579530,.00013351,43.0012,247.1227,263.7122,96.3578,0,U,56417,999,17474,.72347289E-4,.1729E-4,0
STARLINK-5356,2023-061AW,2026-07-04T10:02:44.942208,15.27588622,.00015692,43.0019,240.1765,279.3168,80.7506,0,U,56418,999,17481,-.29636317E-4,-.1078E-4,0
STARLINK-5350,2023-061AX,2026-07-04T12:55:06.149568,15.27578529,.0001288,43.0012,247.2578,271.8434,88.2270,0,U,56419,999,17474,.63901964E-4,.1497E-4,0
